#cP2017 11  5  0  0  0.00000000      96 ORBIT IGS14 HLM  IGS
## 1974      0.00000000   900.00000000 58062 0.0000000000000
+   32   G01G02G03G04G05G06G07G08G09G10G11G12G13G14G15G16G17
+        G18G19G20G21G22G23G24G25G26G27G28G29G30G31G32  0  0
+          0  0  0  0  0  0  0  0  0  0  0  0  0  0  0  0  0
+          0  0  0  0  0  0  0  0  0  0  0  0  0  0  0  0  0
+          0  0  0  0  0  0  0  0  0  0  0  0  0  0  0  0  0
++         2  2  2  0  2  2  2  2  2  2  2  2  2  2  2  2  2
++         3  2  2  2  2  2  2  2  2  2  2  2  2  2  2  0  0
++         0  0  0  0  0  0  0  0  0  0  0  0  0  0  0  0  0
++         0  0  0  0  0  0  0  0  0  0  0  0  0  0  0  0  0
++         0  0  0  0  0  0  0  0  0  0  0  0  0  0  0  0  0
%c G  cc GPS ccc cccc cccc cccc cccc ccccc ccccc ccccc ccccc
%c cc cc ccc ccc cccc cccc cccc cccc ccccc ccccc ccccc ccccc
%f  1.2500000  1.025000000  0.00000000000  0.000000000000000
%f  0.0000000  0.000000000  0.00000000000  0.000000000000000
%i    0    0    0    0      0      0      0      0         0
%i    0    0    0    0      0      0      0      0         0
/* RAPID ORBIT COMBINATION FROM WEIGHTED AVERAGE OF:        
/* cod emr esa gfz jpl ngs sio usn whu                      
/* REFERENCED TO IGS TIME (IGST) AND TO WEIGHTED MEAN POLE: 
/* PCV:IGS14_1973 OL/AL:FES2004  NONE     Y  ORB:CMB CLK:CMB
*  2017 11  5  9 45  0.00000000
PG01  13669.991375  -8280.100488  21028.123217     -8.439050  5  4  3  92       
PG02 -13944.592664 -15988.983304 -15636.857934    288.704782  9  8  8 104       
PG03  22723.846173 -13095.808442   4015.440335    -46.453432  6  2  5  96       
PG04  21486.113355  13618.629885  -8719.435505 999999.999999
PG05 -18326.005587  -3355.932247 -19103.550037    -23.719977 10  6  8 106       
PG06  -7370.089193 -24613.990426  -6696.014001    408.347954  7  6  5  92       
PG07   6788.298967 -22107.701284 -12454.213467    283.736647  5  3  5 105       
PG08  24906.726056   4455.911417   8315.088284    -79.520242  6  6  5  86       
PG09   9954.286636 -12252.704289 -21392.710276    467.555863  4  5  5 117       
PG10  -2520.436810  18359.263650  18999.765736    104.326591  6  5  5  85       
PG11  16180.029311  -3695.164682  20157.296511   -724.916551  4  5  3  92       
PG12 -23578.160922   9522.028350   7150.902488    366.155844  8  7  6 113       
PG13 -23547.812412 -12003.712807   2383.686464    -93.584488  9  6  7 108       
PG14  15101.313172  18119.700502  12652.259673    -87.872541  7  8  5  61       
PG15 -24857.407999  -1149.746915   9617.993473   -357.026192  7  4  7 100       
PG16  18360.502372   3520.692523 -19160.243788     36.592536  9  8  6  66       
PG17  -6621.178005 -17639.761854  19155.881694   -146.590305  7  4  7  90       
PG18 -11681.819443  20938.577159  11821.832159    632.325693  6  9  6 104       
PG19 -14150.585104 -17985.545690  13009.299274   -477.341845  7  2  6  96       
PG20 -22384.063022  11587.012125  -8481.774665    491.853553  8  6  8  76       
PG21  -3256.864264  24259.315930  -9434.138329   -464.923290  7  6  5  92       
PG22  22916.576833  -7533.422416  11386.431666   -178.698735  8  6  6 114       
PG23  20005.972337  -4653.998379 -16807.241675   -218.523644  8  7  7 128       
PG24 -14812.993076   5301.245511  21284.168804    -41.847505  3  6  5  71       
PG25 -19199.530861  17662.351045  -4466.923725   -484.442515  6  5  7 100       
PG26   9605.765197  11897.629152 -21710.073486   -373.135751  2  5  4  81       
PG27  23283.495592  12619.402829  -3319.347972    344.654917  7  3  5 102       
PG28   7243.425483 -18518.726573  18251.747172    659.956893  5  4  2  82       
PG29 -14925.021886   7743.053162 -20571.528041    542.218915  7  4  7 105       
PG30    633.121942 -26327.836033  -2758.379347    130.097024  8  4  5  83       
PG31   8113.660531  23334.776843  -9114.584583    164.168271  9  4  8 106       
PG32   9671.569989  17570.835698  17465.901000   -520.561356  5  6  6  95       
*  2017 11  5 10  0  0.00000000
PG01  14060.863724  -5840.934891  21602.565456     -8.441058  5  4  3  96       
PG02 -14072.816889 -17744.262195 -13588.506915    288.695876 10  7  8 103       
PG03  22390.645883 -12513.656765   6782.309969    -46.448647  6  3  5  98       
PG04  20373.301180  13490.542866 -11226.075650 999999.999999
PG05 -16662.958407  -4848.060440 -20258.277956    -23.719028 10  6  8  92       
PG06  -7232.453582 -25248.764350  -3910.074985    408.349684  7  5  5  96       
PG07   7211.160254 -20547.902895 -14693.655166    283.732262  5  4  5 108       
PG08  25562.050082   4940.382097   5599.549107    -79.521772  6  6  4  67       
PG09  12173.883414 -11320.468760 -20748.594439    467.560317  3  5  5 110       
PG10  -4249.946334  19533.864366  17443.182168    104.333799  6  5  5  90       
PG11  17335.442413  -1581.544413  19469.873260   -724.917685  3  5  3  96       
PG12 -22860.503782   8808.682950   9845.836949    366.153977  8  7  6 116       
PG13 -23542.373460 -12265.584496   -488.102239    -93.584550  9  5  7 124       
PG14  13654.101170  17601.779093  14867.494528    -87.873387  7  7  4  61       
PG15 -25696.770543  -1722.539573   7071.198397   -357.026549  7  4  6 113       
PG16  16538.171891   4795.796640 -20471.102655     36.592162  9  7  5  61       
PG17  -4605.582039 -16792.350877  20475.103799   -146.587991  6  2  6  93       
PG18 -12751.562328  21459.799100   9397.405385    632.326055  5  9  6  92       
PG19 -12593.335163 -17374.409117  15225.604295   -477.340386  7  2  6  92       
PG20 -21806.646557  10600.795066 -10961.112708    491.854474  9  6  8  71       
PG21  -3787.555449  23004.365587 -11870.895461   -464.919901  5  4  5  98       
PG22  22041.002582  -6398.366628  13631.827568   -178.710329  8  6  6 113       
PG23  21659.694743  -3809.289903 -14930.691120   -218.523840  8  7  7 112       
PG24 -15275.406038   2873.241156  21446.119857    -41.848427  3  6  5  89       
PG25 -19600.044366  17686.927735  -1596.226248   -484.448196  6  6  7 101       
PG26   7665.287162  13441.208238 -21571.584713   -373.123839  3  5  4  72       
PG27  22722.030953  12598.309253  -6125.867858    344.658430  8  4  6 115       
PG28   8857.845381 -19460.468878  16401.909590    659.959368  6  4  3  84       
PG29 -16946.426099   6695.029837 -19334.575690    542.214608  7  4  7  94       
PG30    974.843727 -25876.277292  -5540.157798    130.094629  7  4  5  76       
PG31   7956.637949  24263.540362  -6416.771592    164.165905  9  4  8 111       
PG32   7684.467385  16936.140106  19008.454866   -520.564596  4  6  6  88       
*  2017 11  5 10 15  0.00000000
PG01  14588.098266  -3385.090451  21799.758468     -8.443129  5  4  2  96       
PG02 -14229.043183 -19246.290871 -11302.286655    288.687393 10  7  9  92       
PG03  21857.630699 -11712.072761   9432.069712    -46.443850  6  2  6 108       
PG04  18992.851812  13360.339198 -13546.519527 999999.999999
PG05 -14994.689008  -6497.531624 -21068.879889    -23.717600  9  5  7  96       
PG06  -7064.489662 -25576.822112  -1056.783793    408.351322  7  4  5  80       
PG07   7755.733095 -18774.201731 -16671.788092    283.727421  5  5  5 119       
PG08  25945.357654   5293.379944   2788.392969    -79.522787  7  7  5  66       
PG09  14349.882073 -10531.381253 -19748.527429    467.564805  3  5  5 108       
PG10  -5772.489018  20668.569421  15585.447254    104.340941  6  5  5  75       
PG11  18520.502528    400.115917  18430.121453   -724.919648  4  6  3 109       
PG12 -21948.690195   7871.637608  12368.279404    366.152583  8  7  6 121       
PG13 -23257.305439 -12387.724014  -3351.489626    -93.584907  9  5  7 120       
PG14  11967.145966  17069.759722  16833.176337    -87.874124  6  6  4  79       
PG15 -26278.870767  -2180.147822   4404.675026   -357.026892  8  4  6 108       
PG16  14687.614923   6252.036380 -21437.138907     36.591978  9  7  5  60       
PG17  -2426.356245 -16013.696559  21454.323062   -146.585814  6  1  6  92       
PG18 -13600.276228  21834.292722   6813.322381    632.326267  5  9  5 102       
PG19 -10785.964813 -16751.231663  17172.396037   -477.338576  7     6  99       
PG20 -21093.504783   9393.686777 -13252.852874    491.855632  9  6  8  67       
PG21  -4446.777658  21511.905595 -14093.860127   -464.917538  4  3  4  84       
PG22  21048.732890  -5059.455280  15646.134376   -178.721944  8  5  6 107       
PG23  23135.062960  -3121.112975 -12797.783814   -218.523975  8  7  7 115       
PG24 -15855.302942    476.163700  21235.971547    -41.847741  4  6  5  88       
PG25 -19752.490800  17515.285620   1302.276543   -484.453847  5  6  7  75       
PG26   5833.302274  15058.650647 -21061.381676   -373.111957  4  6  4  74       
PG27  21865.440907  12510.743755  -8828.521738    344.661912  7  5  6 110       
PG28  10243.042558 -20362.006888  14281.819188    659.962426  7  3  3  78       
PG29 -18875.385202   5820.188616 -17765.192186    542.209989  7  2  7 102       
PG30   1382.181416 -25135.335332  -8225.722763    130.092246  7  4  5  89       
PG31   7795.209049  24888.398967  -3605.590701    164.163879  8  5  8 107       
PG32   5518.720129  16356.543009  20225.130778   -520.567777  4  6  6  96       
EOF
